COSMOS 1933             
1 18958U 88020A   25352.22722598  .00004395  00000+0  21995-3 0  9992
2 18958  82.5128 331.4562 0006203 113.0543 247.1345 15.17152817 37870
SL-3 R/B                
1 19046U 88032B   25352.26407930  .00003999  00000+0  19375-3 0  9996
2 19046  97.5078 330.9463 0027316 154.0076 206.2537 15.18796771 39748
SL-16 R/B               
1 19120U 88039B   25352.10222905  .00000119  00000+0  79006-4 0  9995
2 19120  71.0138 241.0602 0019621 107.0954 253.2323 14.19597409946801
COSMOS 1953             
1 19210U 88050A   25351.75027580  .00004793  00000+0  17925-3 0  9993
2 19210  82.5093 240.5536 0013540  56.0210 304.2313 15.26995692 25270
SL-8 R/B                
1 19257U 88053B   25352.25205567  .00000212  00000+0  77084-4 0  9991
2 19257  74.0476 262.5606 0018963 104.5874  11.4637 14.38862576964884
COSMOS 1975             
1 19573U 88093A   25352.28715514  .00006137  00000+0  23299-3 0  9997
2 19573  82.5194 199.2749 0013044  95.2933 264.9795 15.26551430  6987
SL-14 R/B               
1 19574U 88093B   25352.11723311  .00000438  00000+0  47818-4 0  9996
2 19574  82.5310 118.6209 0019563 310.7974 222.2154 14.85554852988920
SL-16 R/B               
1 19650U 88102B   25352.25058253  .00000260  00000+0  15552-3 0  9995
2 19650  71.0001 322.8473 0012752 142.3858 217.8160 14.16138357915367
INTERCOSMOS 24          
1 20261U 89080A   25351.90829325  .00000660  00000+0  18559-3 0  9992
2 20261  82.6049 157.5924 1188913 122.5352 249.6267 12.59449147656500
SL-14 R/B               
1 20262U 89080C   25352.18468222  .00000336  00000+0  96404-4 0  9995
2 20262  82.5923 225.5257 1230577  11.1471 351.4401 12.50418097649960
DELTA 1 R/B             
1 20323U 89089B   25352.15810690  .00000267  00000+0  74785-4 0  9990
2 20323  97.0748 207.5368 0069722  21.3848 339.0238 14.50576420883911
ARIANE 40 R/B           
1 20443U 90005H   25352.15978739  .00000246  00000+0  91773-4 0  9995
2 20443  98.3238  50.1845 0011278  91.0996 269.1485 14.39802686881070
